{"type": "FeatureCollection", "features": [ {"type": "Feature", "properties": {"norad_id": 44543, "name": "BEIDOU-3 M23 (C45)", "group": "beidou", "lat": -10.829437143552449, "lon": 16.467366373822777, "alt_km": 21546.48662684933, "timestamp": "2025-12-24T14:43:29.267216+00:00", "meta": {"OBJECT_NAME": "BEIDOU-3 M23 (C45)", "OBJECT_ID": "2019-061B", "EPOCH": "2025-12-24T01:09:49.421952", "MEAN_MOTION": 1.86227524, "ECCENTRICITY": 0.00060474, "INCLINATION": 54.3997, "RA_OF_ASC_NODE": 188.6027, "ARG_OF_PERICENTER": 26.1168, "MEAN_ANOMALY": 148.3907, "EPHEMERIS_TYPE": 0, "CLASSIFICATION_TYPE": "U", "NORAD_CAT_ID": 44543, "ELEMENT_SET_NO": 999, "REV_AT_EPOCH": 4253, "BSTAR": 0, "MEAN_MOTION_DOT": 1.01e-06, "MEAN_MOTION_DDOT": 0}, "tle": {"line1": "1 44543U 19061B   25358.04848868  .00000101  00000+0  00000+0 0  9996", "line2": "2 44543  54.3997 188.6027 0006047  26.1168 148.3907  1.86227524 42535"}}, "geometry": {"type": "Point", "coordinates": [16.467366373822777, -10.829437143552449]}}, {"type": "Feature", "properties": {"norad_id": 44793, "name": "BEIDOU-3 M22 (C44)", "group": "beidou", "lat": 22.26321775739708, "lon": -36.81624965957831, "alt_km": 21508.292091944295, "timestamp": "2025-12-24T14:43:29.267227+00:00", "meta": {"OBJECT_NAME": "BEIDOU-3 M22 (C44)", "OBJECT_ID": "2019-078A", "EPOCH": "2025-12-22T23:04:03.320256", "MEAN_MOTION": 1.86232206, "ECCENTRICITY": 0.00060944, "INCLINATION": 54.0989, "RA_OF_ASC_NODE": 306.0279, "ARG_OF_PERICENTER": 24.0205, "MEAN_ANOMALY": 336.0117, "EPHEMERIS_TYPE": 0, "CLASSIFICATION_TYPE": "U", "NORAD_CAT_ID": 44793, "ELEMENT_SET_NO": 999, "REV_AT_EPOCH": 4136, "BSTAR": 0, "MEAN_MOTION_DOT": -5.4e-07, "MEAN_MOTION_DDOT": 0}, "tle": {"line1": "1 44793U 19078A   25356.96114954 -.00000054  00000+0  00000+0 0  9990", "line2": "2 44793  54.0989 306.0279 0006094  24.0205 336.0117  1.86232206 41368"}}, "geometry": {"type": "Point", "coordinates": [-36.81624965957831, 22.26321775739708]}}, {"type": "Feature", "properties": {"norad_id": 44794, "name": "BEIDOU-3 M21 (C43)", "group": "beidou", "lat": -47.051059291217236, "lon": -105.1725405674405, "alt_km": 21531.051782162118, "timestamp": "2025-12-24T14:43:29.267239+00:00", "meta": {"OBJECT_NAME": "BEIDOU-3 M21 (C43)", "OBJECT_ID": "2019-078B", "EPOCH": "2025-12-24T04:09:05.808096", "MEAN_MOTION": 1.86227905, "ECCENTRICITY": 0.00042864, "INCLINATION": 54.0711, "RA_OF_ASC_NODE": 305.95, "ARG_OF_PERICENTER": 12.8306, "MEAN_ANOMALY": 347.188, "EPHEMERIS_TYPE": 0, "CLASSIFICATION_TYPE": "U", "NORAD_CAT_ID": 44794, "ELEMENT_SET_NO": 999, "REV_AT_EPOCH": 4139, "BSTAR": 0, "MEAN_MOTION_DOT": -5.2e-07, "MEAN_MOTION_DDOT": 0}, "tle": {"line1": "1 44794U 19078B   25358.17298389 -.00000052  00000+0  00000+0 0  9999", "line2": "2 44794  54.0711 305.9500 0004286  12.8306 347.1880  1.86227905 41398"}}, "geometry": {"type": "Point", "coordinates": [-105.1725405674405, -47.051059291217236]}}, {"type": "Feature", "properties": {"norad_id": 44864, "name": "BEIDOU-3 M19 (C41)", "group": "beidou", "lat": 38.85894179589852, "lon": -143.7528399669805, "alt_km": 21569.257359536172, "timestamp": "2025-12-24T14:43:29.267250+00:00", "meta": {"OBJECT_NAME": "BEIDOU-3 M19 (C41)", "OBJECT_ID": "2019-090A", "EPOCH": "2025-12-23T08:14:02.545728", "MEAN_MOTION": 1.86231621, "ECCENTRICITY": 0.00183506, "INCLINATION": 56.4016, "RA_OF_ASC_NODE": 68.6102, "ARG_OF_PERICENTER": 285.1686, "MEAN_ANOMALY": 74.3057, "EPHEMERIS_TYPE": 0, "CLASSIFICATION_TYPE": "U", "NORAD_CAT_ID": 44864, "ELEMENT_SET_NO": 999, "REV_AT_EPOCH": 4095, "BSTAR": 0, "MEAN_MOTION_DOT": -2.5e-07, "MEAN_MOTION_DDOT": 0}, "tle": {"line1": "1 44864U 19090A   25357.34308502 -.00000025  00000+0  00000+0 0  9998", "line2": "2 44864  56.4016  68.6102 0018350 285.1686  74.3057  1.86231621 40950"}}, "geometry": {"type": "Point", "coordinates": [-143.7528399669805, 38.85894179589852]}}, {"type": "Feature", "properties": {"norad_id": 44865, "name": "BEIDOU-3 M20 (C42)", "group": "beidou", "lat": -32.88913719632499, "lon": -85.95608135594405, "alt_km": 21522.090824702034, "timestamp": "2025-12-24T14:43:29.267261+00:00", "meta": {"OBJECT_NAME": "BEIDOU-3 M20 (C42)", "OBJECT_ID": "2019-090B", "EPOCH": "2025-12-24T06:49:50.341152", "MEAN_MOTION": 1.862316, "ECCENTRICITY": 0.00155247, "INCLINATION": 56.404, "RA_OF_ASC_NODE": 68.6133, "ARG_OF_PERICENTER": 297.3471, "MEAN_ANOMALY": 62.9851, "EPHEMERIS_TYPE": 0, "CLASSIFICATION_TYPE": "U", "NORAD_CAT_ID": 44865, "ELEMENT_SET_NO": 999, "REV_AT_EPOCH": 4096, "BSTAR": 0, "MEAN_MOTION_DOT": -2.4e-07, "MEAN_MOTION_DDOT": 0}, "tle": {"line1": "1 44865U 19090B   25358.28461043 -.00000024  00000+0  00000+0 0  9992", "line2": "2 44865  56.4040  68.6133 0015524 297.3471  62.9851  1.86231600 40962"}}, "geometry": {"type": "Point", "coordinates": [-85.95608135594405, -32.88913719632499]}}, {"type": "Feature", "properties": {"norad_id": 45344, "name": "BEIDOU-3 G2 (C60)", "group": "beidou", "lat": -0.42465695676831017, "lon": 34.32597883297745, "alt_km": 35789.780257446255, "timestamp": "2025-12-24T14:43:29.267273+00:00", "meta": {"OBJECT_NAME": "BEIDOU-3 G2 (C60)", "OBJECT_ID": "2020-017A", "EPOCH": "2025-12-23T23:47:05.724672", "MEAN_MOTION": 1.00272217, "ECCENTRICITY": 0.00022201, "INCLINATION": 2.5166, "RA_OF_ASC_NODE": 44.183, "ARG_OF_PERICENTER": 236.7044, "MEAN_ANOMALY": 248.6997, "EPHEMERIS_TYPE": 0, "CLASSIFICATION_TYPE": "U", "NORAD_CAT_ID": 45344, "ELEMENT_SET_NO": 999, "REV_AT_EPOCH": 2150, "BSTAR": 0, "MEAN_MOTION_DOT": -1.2e-06, "MEAN_MOTION_DDOT": 0}, "tle": {"line1": "1 45344U 20017A   25357.99103848 -.00000120  00000+0  00000+0 0  9996", "line2": "2 45344   2.5166  44.1830 0002220 236.7044 248.6997  1.00272217 21509"}}, "geometry": {"type": "Point", "coordinates": [34.32597883297745, -0.42465695676831017]}}, {"type": "Feature", "properties": {"norad_id": 45807, "name": "BEIDOU-3 G3 (C61)", "group": "beidou", "lat": -0.04842393107349174, "lon": 64.84830746603937, "alt_km": 35768.97897053362, "timestamp": "2025-12-24T14:43:29.267284+00:00", "meta": {"OBJECT_NAME": "BEIDOU-3 G3 (C61)", "OBJECT_ID": "2020-040A", "EPOCH": "2025-12-24T06:46:41.471616", "MEAN_MOTION": 1.00268173, "ECCENTRICITY": 0.00065833, "INCLINATION": 2.0173, "RA_OF_ASC_NODE": 66.6796, "ARG_OF_PERICENTER": 309.1585, "MEAN_ANOMALY": 289.4373, "EPHEMERIS_TYPE": 0, "CLASSIFICATION_TYPE": "U", "NORAD_CAT_ID": 45807, "ELEMENT_SET_NO": 999, "REV_AT_EPOCH": 2031, "BSTAR": 0, "MEAN_MOTION_DOT": -3.33e-06, "MEAN_MOTION_DDOT": 0}, "tle": {"line1": "1 45807U 20040A   25358.28242444 -.00000333  00000+0  00000+0 0  9991", "line2": "2 45807   2.0173  66.6796 0006583 309.1585 289.4373  1.00268173 20312"}}, "geometry": {"type": "Point", "coordinates": [64.84830746603937, -0.04842393107349174]}}, {"type": "Feature", "properties": {"norad_id": 56564, "name": "BEIDOU-3 G4 (C62)", "group": "beidou", "lat": 0.13969475819907284, "lon": 114.28176791981065, "alt_km": 35780.24749960792, "timestamp": "2025-12-24T14:43:29.267296+00:00", "meta": {"OBJECT_NAME": "BEIDOU-3 G4 (C62)", "OBJECT_ID": "2023-066A", "EPOCH": "2025-12-24T05:18:04.958208", "MEAN_MOTION": 1.00271024, "ECCENTRICITY": 0.00026057, "INCLINATION": 0.7912, "RA_OF_ASC_NODE": 302.9366, "ARG_OF_PERICENTER": 227.9709, "MEAN_ANOMALY": 161.6687, "EPHEMERIS_TYPE": 0, "CLASSIFICATION_TYPE": "U", "NORAD_CAT_ID": 56564, "ELEMENT_SET_NO": 999, "REV_AT_EPOCH": 964, "BSTAR": 0, "MEAN_MOTION_DOT": -9e-07, "MEAN_MOTION_DDOT": 0}, "tle": {"line1": "1 56564U 23066A   25358.22089072 -.00000090  00000+0  00000+0 0  9994", "line2": "2 56564   0.7912 302.9366 0002605 227.9709 161.6687  1.00271024  9646"}}, "geometry": {"type": "Point", "coordinates": [114.28176791981065, 0.13969475819907284]}}, {"type": "Feature", "properties": {"norad_id": 58654, "name": "BEIDOU-3 M28 (C50)", "group": "beidou", "lat": -47.30320756258763, "lon": -63.897050626239455, "alt_km": 21526.802731817395, "timestamp": "2025-12-24T14:43:29.267308+00:00", "meta": {"OBJECT_NAME": "BEIDOU-3 M28 (C50)", "OBJECT_ID": "2023-207A", "EPOCH": "2025-12-23T04:15:12.326400", "MEAN_MOTION": 1.86229739, "ECCENTRICITY": 0.00028337, "INCLINATION": 55.5933, "RA_OF_ASC_NODE": 68.248, "ARG_OF_PERICENTER": 274.486, "MEAN_ANOMALY": 85.5342, "EPHEMERIS_TYPE": 0, "CLASSIFICATION_TYPE": "U", "NORAD_CAT_ID": 58654, "ELEMENT_SET_NO": 999, "REV_AT_EPOCH": 1356, "BSTAR": 0, "MEAN_MOTION_DOT": -2.8e-07, "MEAN_MOTION_DDOT": 0}, "tle": {"line1": "1 58654U 23207A   25357.17722600 -.00000028  00000+0  00000+0 0  9998", "line2": "2 58654  55.5933  68.2480 0002833 274.4860  85.5342  1.86229739 13564"}}, "geometry": {"type": "Point", "coordinates": [-63.897050626239455, -47.30320756258763]}}, {"type": "Feature", "properties": {"norad_id": 58655, "name": "BEIDOU-3 M26 (C48)", "group": "beidou", "lat": 15.3381429718126, "lon": 79.0234471134198, "alt_km": 21531.824787399888, "timestamp": "2025-12-24T14:43:29.267319+00:00", "meta": {"OBJECT_NAME": "BEIDOU-3 M26 (C48)", "OBJECT_ID": "2023-207B", "EPOCH": "2025-12-22T23:23:41.171712", "MEAN_MOTION": 1.86231234, "ECCENTRICITY": 0.00041871, "INCLINATION": 55.5951, "RA_OF_ASC_NODE": 68.241, "ARG_OF_PERICENTER": 260.4893, "MEAN_ANOMALY": 99.5155, "EPHEMERIS_TYPE": 0, "CLASSIFICATION_TYPE": "U", "NORAD_CAT_ID": 58655, "ELEMENT_SET_NO": 999, "REV_AT_EPOCH": 1354, "BSTAR": 0, "MEAN_MOTION_DOT": -2.8e-07, "MEAN_MOTION_DDOT": 0}, "tle": {"line1": "1 58655U 23207B   25356.97478208 -.00000028  00000+0  00000+0 0  9998", "line2": "2 58655  55.5951  68.2410 0004187 260.4893  99.5155  1.86231234 13541"}}, "geometry": {"type": "Point", "coordinates": [79.0234471134198, 15.3381429718126]}}]}